0 SL-8 DEB
1 27745U 91009DA  13280.72680380  .00000007  00000-0  18803-3 0  7350
2 27745 073.9225 317.6809 0144430 234.1624 264.9547 12.30695050778096
0 SL-8 DEB
1 27745U 91009DA  13283.14641113  .00000010  00000-0  20848-3 0  7367
2 27745 073.9221 314.5584 0144401 230.7009 185.0119 12.30695246778393
0 SL-8 DEB
1 27745U 91009DA  13285.17328266  .00000028  00000-0  35743-3 0  7373
2 27745 073.9217 311.9425 0144370 227.7958 165.0623 12.30694991778649
0 SL-8 DEB
1 27745U 91009DA  13287.63430487 -.00000029  00000-0 -10508-3 0  7381
2 27745 073.9212 308.7662 0144329 224.2810 268.6001 12.30695579778940
0 SL-8 DEB
1 27745U 91009DA  13290.12962731 -.00000009  00000-0  54967-4 0  7397
2 27745 073.9211 305.5452 0144289 220.7059 164.1228 12.30695754779253
0 SL-8 DEB
1 27745U 91009DA  13292.17124322 -.00000024  00000-0 -67448-4 0  7408
2 27745 073.9213 302.9099 0144246 217.7802 209.5004 12.30695880779502
0 SL-8 DEB
1 27745U 91009DA  13294.19964763  .00000017  00000-0  26555-3 0  7417
2 27745 073.9214 300.2918 0144197 214.8729 196.3475 12.30695452779752
